[{"OBJECT_NAME":"STARLINK-2084","OBJECT_ID":"2021-005V","EPOCH":"2026-03-10T00:00:02.999808","MEAN_MOTION":15.1207585,"ECCENTRICITY":2.582e-5,"INCLINATION":53.0759,"RA_OF_ASC_NODE":60.1546,"ARG_OF_PERICENTER":161.2563,"MEAN_ANOMALY":166.4598,"EPHEMERIS_TYPE":0,"CLASSIFICATION_TYPE":"U","NORAD_CAT_ID":47368,"ELEMENT_SET_NO":999,"REV_AT_EPOCH":574,"BSTAR":0.004658,"MEAN_MOTION_DOT":0.00081703,"MEAN_MOTION_DDOT":0},{"OBJECT_NAME":"IRIDIUM 33 DEB","OBJECT_ID":"1997-051QU","EPOCH":"2026-03-08T21:05:50.889408","MEAN_MOTION":15.14163842,"ECCENTRICITY":0.00066898,"INCLINATION":86.1938,"RA_OF_ASC_NODE":220.7787,"ARG_OF_PERICENTER":301.9958,"MEAN_ANOMALY":209.7336,"EPHEMERIS_TYPE":0,"CLASSIFICATION_TYPE":"U","NORAD_CAT_ID":35622,"ELEMENT_SET_NO":999,"REV_AT_EPOCH":88659,"BSTAR":0.0030521317,"MEAN_MOTION_DOT":0.00056043,"MEAN_MOTION_DDOT":0}]
